LYRA-1                  
1 62664U 25009BH  26068.72653405  .00011728  00000+0  59700-3 0  9996
2 62664  97.4045 145.5025 0009825 171.7868 188.3529 15.16922567 63334
ICEYE-X61               
1 66754U 25276CS  26068.73403723  .00009840  00000+0  47625-3 0  9998
2 66754  97.4269 144.0181 0002081 344.9229  15.1943 15.18776211 15323
