[{"OBJECT_NAME":"LYRA-1","OBJECT_ID":"2025-009BH","EPOCH":"2026-03-09T17:26:12.542784","MEAN_MOTION":15.16922568,"ECCENTRICITY":0.00098251,"INCLINATION":97.4045,"RA_OF_ASC_NODE":145.5025,"ARG_OF_PERICENTER":171.7868,"MEAN_ANOMALY":188.3529,"EPHEMERIS_TYPE":0,"CLASSIFICATION_TYPE":"U","NORAD_CAT_ID":62664,"ELEMENT_SET_NO":999,"REV_AT_EPOCH":6333,"BSTAR":0.00059700149,"MEAN_MOTION_DOT":0.00011728,"MEAN_MOTION_DDOT":0},{"OBJECT_NAME":"ICEYE-X61","OBJECT_ID":"2025-276CS","EPOCH":"2026-03-09T17:37:00.817536","MEAN_MOTION":15.18776211,"ECCENTRICITY":0.00020811,"INCLINATION":97.4269,"RA_OF_ASC_NODE":144.0181,"ARG_OF_PERICENTER":344.9229,"MEAN_ANOMALY":15.1943,"EPHEMERIS_TYPE":0,"CLASSIFICATION_TYPE":"U","NORAD_CAT_ID":66754,"ELEMENT_SET_NO":999,"REV_AT_EPOCH":1532,"BSTAR":0.00047624581,"MEAN_MOTION_DOT":9.84e-5,"MEAN_MOTION_DDOT":0}]
